[{"OBJECT_NAME":"STARLINK-35978","OBJECT_ID":"2025-270P","EPOCH":"2026-03-09T22:22:11.626464","MEAN_MOTION":15.27611046,"ECCENTRICITY":0.00018639,"INCLINATION":43.0012,"RA_OF_ASC_NODE":54.7498,"ARG_OF_PERICENTER":267.9731,"MEAN_ANOMALY":92.0907,"EPHEMERIS_TYPE":0,"CLASSIFICATION_TYPE":"U","NORAD_CAT_ID":66601,"ELEMENT_SET_NO":999,"REV_AT_EPOCH":1758,"BSTAR":0.0013325163,"MEAN_MOTION_DOT":0.00036623,"MEAN_MOTION_DDOT":0},{"OBJECT_NAME":"COSMOS 2251 DEB","OBJECT_ID":"1993-036AWN","EPOCH":"2026-03-09T06:26:08.321568","MEAN_MOTION":15.11257706,"ECCENTRICITY":0.00842289,"INCLINATION":74.0116,"RA_OF_ASC_NODE":284.5024,"ARG_OF_PERICENTER":350.308,"MEAN_ANOMALY":9.6482,"EPHEMERIS_TYPE":0,"CLASSIFICATION_TYPE":"U","NORAD_CAT_ID":35996,"ELEMENT_SET_NO":999,"REV_AT_EPOCH":73632,"BSTAR":0.00055219842,"MEAN_MOTION_DOT":0.00010085,"MEAN_MOTION_DDOT":0}]
